{"fetched_at":"2026-04-06T09:11:08Z","count":17271,"tles":[{"name":"CZ-6A R/B","line1":"1 68197U 26051B   26095.52485759  .00001315  00000+0  17820-3 0  9992","line2":"2 68197 142.0302 348.4525 0187402 244.4764 113.6482 14.56386711  3076","category":"Other"},{"name":"2026-052A","line1":"1 68198U 26052A   26095.62911824  .00010158  00000+0  62588-3 0  9998","line2":"2 68198  97.5352 171.5495 0013726 191.5234 168.5683 15.10086258  3096","category":"Other"},{"name":"YUXING-3 06","line1":"1 68199U 26052B   26095.75956203  .00007552  00000+0  46495-3 0  9996","line2":"2 68199  97.5353 171.6820 0012736 192.2256 167.8667 15.10214328  3111","category":"Other"},{"name":"2026-052C","line1":"1 68200U 26052C   26095.62533609  .00006870  00000+0  42216-3 0  9995","line2":"2 68200  97.5350 171.5547 0012426 195.1356 164.9504 15.10322032  3081","category":"Other"},{"name":"2026-052D","line1":"1 68201U 26052D   26095.62272446  .00010058  00000+0  61173-3 0  9991","line2":"2 68201  97.5355 171.5558 0011715 191.4324 168.6641 15.10583662  3095","category":"Other"},{"name":"2026-052E","line1":"1 68202U 26052E   26095.09277573  .00015605  00000+0  94666-3 0  9995","line2":"2 68202  97.5345 171.0418 0010463 202.2983 157.7793 15.10577677  3014","category":"Other"},{"name":"2026-052F","line1":"1 68203U 26052F   26095.61927716  .00009733  00000+0  58810-3 0  9991","line2":"2 68203  97.5351 171.5663 0010736 187.6739 172.4328 15.10840235  3096","category":"Other"},{"name":"2026-052G","line1":"1 68204U 26052G   26095.61862859  .00009464  00000+0  57132-3 0  9995","line2":"2 68204  97.5360 171.5617 0010316 190.2684 169.8336 15.10885669  3098","category":"Other"},{"name":"KZ-11 R/B","line1":"1 68205U 26052H   26095.60913554  .00024381  20035-5  36774-3 0  9994","line2":"2 68205  97.3395 170.1800 0543556 306.6903  48.5511 14.67714254  3009","category":"Other"},{"name":"2026-052J","line1":"1 68206U 26052J   26095.59911646  .00080656  29281-5  11734-2 0  9990","line2":"2 68206  97.3393 170.1916 0537012 306.6796  48.6185 14.69473831  3009","category":"Other"},{"name":"STARLINK-36986","line1":"1 68207U 26053A   26095.57328196  .00137836  00000+0  70568-3 0  9998","line2":"2 68207  97.2849 331.2051 0001495  73.8317 286.3116 15.80919682  4300","category":"Starlink"},{"name":"STARLINK-37009","line1":"1 68208U 26053B   26095.63583196  .00176572  00000+0  89892-3 0  9999","line2":"2 68208  97.2848 331.2729 0002055 116.2118 243.9361 15.80939409  4317","category":"Starlink"}]}