CCSDS_OMM_VERS = 2.0
CREATION_DATE  = 
ORIGINATOR     = 

OBJECT_NAME    = CZ-6A R/B
OBJECT_ID      = 2026-051B
CENTER_NAME    = EARTH
REF_FRAME      = TEME
TIME_SYSTEM    = UTC
MEAN_ELEMENT_THEORY = SGP/SGP4

EPOCH          = 2026-04-05T12:35:47.695776
MEAN_MOTION    = 14.56386711
ECCENTRICITY   = .01874028
INCLINATION    = 142.0302
RA_OF_ASC_NODE = 348.4525
ARG_OF_PERICENTER = 244.4764
MEAN_ANOMALY   = 113.6482

EPHEMERIS_TYPE = 0
CLASSIFICATION_TYPE = U
NORAD_CAT_ID   = 68197
ELEMENT_SET_NO = 999
REV_AT_EPOCH   = 307
BSTAR          = .17819739E-3
MEAN_MOTION_DOT = .1315E-4
MEAN_MOTION_DDOT = 0

CCSDS_OMM_VERS = 2.0
CREATION_DATE  = 
ORIGINATOR     = 

OBJECT_NAME    = 2026-052A
OBJECT_ID      = 2026-052A
CENTER_NAME    = EARTH
REF_FRAME      = TEME
TIME_SYSTEM    = UTC
MEAN_ELEMENT_THEORY = SGP/SGP4

EPOCH          = 2026-04-05T15:05:55.815936
MEAN_MOTION    = 15.10086258
ECCENTRICITY   = .00137261
INCLINATION    = 97.5352
RA_OF_ASC_NODE = 171.5495
ARG_OF_PERICENTER = 191.5234
MEAN_ANOMALY   = 168.5683

EPHEMERIS_TYPE = 0
CLASSIFICATION_TYPE = U
NORAD_CAT_ID   = 68198
ELEMENT_SET_NO = 999
REV_AT_EPOCH   = 309
BSTAR          = .62588262E-3
MEAN_MOTION_DOT = .10158E-3
MEAN_MOTION_DDOT = 0

CCSDS_OMM_VERS = 2.0
CREATION_DATE  = 
ORIGINATOR     = 

OBJECT_NAME    = YUXING-3 06
OBJECT_ID      = 2026-052B
CENTER_NAME    = EARTH
REF_FRAME      = TEME
TIME_SYSTEM    = UTC
MEAN_ELEMENT_THEORY = SGP/SGP4

EPOCH          = 2026-04-05T18:13:46.159392
MEAN_MOTION    = 15.10214328
ECCENTRICITY   = .0012736
INCLINATION    = 97.5353
RA_OF_ASC_NODE = 171.6820
ARG_OF_PERICENTER = 192.2256
MEAN_ANOMALY   = 167.8667

EPHEMERIS_TYPE = 0
CLASSIFICATION_TYPE = U
NORAD_CAT_ID   = 68199
ELEMENT_SET_NO = 999
REV_AT_EPOCH   = 311
BSTAR          = .46495E-3
MEAN_MOTION_DOT = .7552E-4
MEAN_MOTION_DDOT = 0

CCSDS_OMM_VERS = 2.0
CREATION_DATE  = 
ORIGINATOR     = 

OBJECT_NAME    = 2026-052C
OBJECT_ID      = 2026-052C
CENTER_NAME    = EARTH
REF_FRAME      = TEME
TIME_SYSTEM    = UTC
MEAN_ELEMENT_THEORY = SGP/SGP4

EPOCH          = 2026-04-05T15:00:29.038176
MEAN_MOTION    = 15.10322032
ECCENTRICITY   = .00124269
INCLINATION    = 97.5350
RA_OF_ASC_NODE = 171.5547
ARG_OF_PERICENTER = 195.1356
MEAN_ANOMALY   = 164.9504

EPHEMERIS_TYPE = 0
CLASSIFICATION_TYPE = U
NORAD_CAT_ID   = 68200
ELEMENT_SET_NO = 999
REV_AT_EPOCH   = 308
BSTAR          = .42215667E-3
MEAN_MOTION_DOT = .687E-4
MEAN_MOTION_DDOT = 0

CCSDS_OMM_VERS = 2.0
CREATION_DATE  = 
ORIGINATOR     = 

OBJECT_NAME    = 2026-052D
OBJECT_ID      = 2026-052D
CENTER_NAME    = EARTH
REF_FRAME      = TEME
TIME_SYSTEM    = UTC
MEAN_ELEMENT_THEORY = SGP/SGP4

EPOCH          = 2026-04-05T14:56:43.393344
MEAN_MOTION    = 15.10583662
ECCENTRICITY   = .00117152
INCLINATION    = 97.5355
RA_OF_ASC_NODE = 171.5558
ARG_OF_PERICENTER = 191.4324
MEAN_ANOMALY   = 168.6641

EPHEMERIS_TYPE = 0
CLASSIFICATION_TYPE = U
NORAD_CAT_ID   = 68201
ELEMENT_SET_NO = 999
REV_AT_EPOCH   = 309
BSTAR          = .61172831E-3
MEAN_MOTION_DOT = .10058E-3
MEAN_MOTION_DDOT = 0

CCSDS_OMM_VERS = 2.0
CREATION_DATE  = 
ORIGINATOR     = 

OBJECT_NAME    = 2026-052E
OBJECT_ID      = 2026-052E
CENTER_NAME    = EARTH
REF_FRAME      = TEME
TIME_SYSTEM    = UTC
MEAN_ELEMENT_THEORY = SGP/SGP4

EPOCH          = 2026-04-05T02:13:35.823072
MEAN_MOTION    = 15.10577677
ECCENTRICITY   = .00104634
INCLINATION    = 97.5345
RA_OF_ASC_NODE = 171.0418
ARG_OF_PERICENTER = 202.2983
MEAN_ANOMALY   = 157.7793

EPHEMERIS_TYPE = 0
CLASSIFICATION_TYPE = U
NORAD_CAT_ID   = 68202
ELEMENT_SET_NO = 999
REV_AT_EPOCH   = 301
BSTAR          = .94665779E-3
MEAN_MOTION_DOT = .15605E-3
MEAN_MOTION_DDOT = 0

CCSDS_OMM_VERS = 2.0
CREATION_DATE  = 
ORIGINATOR     = 

OBJECT_NAME    = 2026-052F
OBJECT_ID      = 2026-052F
CENTER_NAME    = EARTH
REF_FRAME      = TEME
TIME_SYSTEM    = UTC
MEAN_ELEMENT_THEORY = SGP/SGP4

EPOCH          = 2026-04-05T14:51:45.546624
MEAN_MOTION    = 15.10840235
ECCENTRICITY   = .00107369
INCLINATION    = 97.5351
RA_OF_ASC_NODE = 171.5663
ARG_OF_PERICENTER = 187.6739
MEAN_ANOMALY   = 172.4328

EPHEMERIS_TYPE = 0
CLASSIFICATION_TYPE = U
NORAD_CAT_ID   = 68203
ELEMENT_SET_NO = 999
REV_AT_EPOCH   = 309
BSTAR          = .58810066E-3
MEAN_MOTION_DOT = .9733E-4
MEAN_MOTION_DDOT = 0

CCSDS_OMM_VERS = 2.0
CREATION_DATE  = 
ORIGINATOR     = 

OBJECT_NAME    = 2026-052G
OBJECT_ID      = 2026-052G
CENTER_NAME    = EARTH
REF_FRAME      = TEME
TIME_SYSTEM    = UTC
MEAN_ELEMENT_THEORY = SGP/SGP4

EPOCH          = 2026-04-05T14:50:49.510176
MEAN_MOTION    = 15.10885669
ECCENTRICITY   = .00103163
INCLINATION    = 97.5360
RA_OF_ASC_NODE = 171.5617
ARG_OF_PERICENTER = 190.2684
MEAN_ANOMALY   = 169.8336

EPHEMERIS_TYPE = 0
CLASSIFICATION_TYPE = U
NORAD_CAT_ID   = 68204
ELEMENT_SET_NO = 999
REV_AT_EPOCH   = 309
BSTAR          = .57131503E-3
MEAN_MOTION_DOT = .9464E-4
MEAN_MOTION_DDOT = 0

CCSDS_OMM_VERS = 2.0
CREATION_DATE  = 
ORIGINATOR     = 

OBJECT_NAME    = KZ-11 R/B
OBJECT_ID      = 2026-052H
CENTER_NAME    = EARTH
REF_FRAME      = TEME
TIME_SYSTEM    = UTC
MEAN_ELEMENT_THEORY = SGP/SGP4

EPOCH          = 2026-04-05T14:37:09.310656
MEAN_MOTION    = 14.67714254
ECCENTRICITY   = .05435562
INCLINATION    = 97.3395
RA_OF_ASC_NODE = 170.1800
ARG_OF_PERICENTER = 306.6903
MEAN_ANOMALY   = 48.5511

EPHEMERIS_TYPE = 0
CLASSIFICATION_TYPE = U
NORAD_CAT_ID   = 68205
ELEMENT_SET_NO = 999
REV_AT_EPOCH   = 300
BSTAR          = .36773936E-3
MEAN_MOTION_DOT = .24381E-3
MEAN_MOTION_DDOT = .2003545E-5

CCSDS_OMM_VERS = 2.0
CREATION_DATE  = 
ORIGINATOR     = 

OBJECT_NAME    = 2026-052J
OBJECT_ID      = 2026-052J
CENTER_NAME    = EARTH
REF_FRAME      = TEME
TIME_SYSTEM    = UTC
MEAN_ELEMENT_THEORY = SGP/SGP4

EPOCH          = 2026-04-05T14:22:43.662144
MEAN_MOTION    = 14.69473831
ECCENTRICITY   = .05370128
INCLINATION    = 97.3393
RA_OF_ASC_NODE = 170.1916
ARG_OF_PERICENTER = 306.6796
MEAN_ANOMALY   = 48.6185

EPHEMERIS_TYPE = 0
CLASSIFICATION_TYPE = U
NORAD_CAT_ID   = 68206
ELEMENT_SET_NO = 999
REV_AT_EPOCH   = 300
BSTAR          = .11733819E-2
MEAN_MOTION_DOT = .80656E-3
MEAN_MOTION_DDOT = .292811E-5

CCSDS_OMM_VERS = 2.0
CREATION_DATE  = 
ORIGINATOR     = 

OBJECT_NAME    = STARLINK-36986
OBJECT_ID      = 2026-053A
CENTER_NAME    = EARTH
REF_FRAME      = TEME
TIME_SYSTEM    = UTC
MEAN_ELEMENT_THEORY = SGP/SGP4

EPOCH          = 2026-04-05T13:45:31.561344
MEAN_MOTION    = 15.80919682
ECCENTRICITY   = .00014958
INCLINATION    = 97.2849
RA_OF_ASC_NODE = 331.2051
ARG_OF_PERICENTER = 73.8317
MEAN_ANOMALY   = 286.3116

EPHEMERIS_TYPE = 0
CLASSIFICATION_TYPE = U
NORAD_CAT_ID   = 68207
ELEMENT_SET_NO = 999
REV_AT_EPOCH   = 430
BSTAR          = .70567647E-3
MEAN_MOTION_DOT = .137836E-2
MEAN_MOTION_DDOT = 0

CCSDS_OMM_VERS = 2.0
CREATION_DATE  = 
ORIGINATOR     = 

OBJECT_NAME    = STARLINK-37009
OBJECT_ID      = 2026-053B
CENTER_NAME    = EARTH
REF_FRAME      = TEME
TIME_SYSTEM    = UTC
MEAN_ELEMENT_THEORY = SGP/SGP4

EPOCH          = 2026-04-05T15:15:35.881344
MEAN_MOTION    = 15.80939409
ECCENTRICITY   = .00020558
INCLINATION    = 97.2848
RA_OF_ASC_NODE = 331.2729
ARG_OF_PERICENTER = 116.2118
MEAN_ANOMALY   = 243.9361

EPHEMERIS_TYPE = 0
CLASSIFICATION_TYPE = U
NORAD_CAT_ID   = 68208
ELEMENT_SET_NO = 999
REV_AT_EPOCH   = 431
BSTAR          = .89892165E-3
MEAN_MOTION_DOT = .176572E-2
MEAN_MOTION_DDOT = 0

